EUTELSAT 113 WEST A     
1 29162U 06020A   23331.86306927 -.00000028  00000+0  00000+0 0  9990
2 29162   0.0104 185.6551 0002997  61.6627  16.9304  1.00272186 64115
RESURS-DK 1             
1 29228U 06021A   23331.91157798  .00003934  00000+0  27714-3 0  9993
2 29228  69.9355 219.9370 0006688 303.3692  56.6830 15.05851167961853
GALAXY 16 (G-16)        
1 29236U 06023A   23331.65093646 -.00000117  00000+0  00000+0 0  9992
2 29236   0.0608 108.4684 0002097 132.6805 320.4955  1.00271613 63628
GENESIS 1               
1 29252U 06029A   23332.47258501  .00018244  00000+0  61129-3 0  9992
2 29252  64.5176 122.7546 0004451 237.1699 122.9003 15.31019262959706
ARIRANG-2 (KOMPSAT-2)   
1 29268U 06031A   23332.48622675  .00000762  00000+0  15622-3 0  9993
2 29268  97.8821 184.8115 0015549 141.6563 281.5167 14.63308367925245
EUTELSAT HOTBIRD 13B    
1 29270U 06032A   23332.46518649  .00000165  00000+0  00000+0 0  9997
2 29270   0.0504 355.3927 0004378 248.1896  24.1225  1.00271627 63512
JCSAT-3A                
1 29272U 06033A   23332.51264671 -.00000335  00000+0  00000+0 0  9999
2 29272   0.0507 107.7849 0002287 135.7736 136.1653  1.00271603 63423
SYRACUSE 3B             
1 29273U 06033B   23331.88730049 -.00000034  00000+0  00000+0 0  9992
2 29273   0.5004  92.0384 0005721 160.2539 128.4970  1.00272296 63358
KOREASAT 5 (MUGUNGWHA 5)
1 29349U 06034A   23332.48111164 -.00000349  00000+0  00000+0 0  9994
2 29349   0.0161 276.5502 0002219 333.0909 103.7493  1.00270892 63291
HINODE (SOLAR-B)        
1 29479U 06041A   23332.05950268  .00001500  00000+0  28280-3 0  9998
2 29479  98.0998 345.2077 0018203   3.7384 356.3952 14.65859191918171
NAVSTAR 58 (USA 190)    
1 29486U 06042A   23330.94170507  .00000079  00000+0  00000+0 0  9999
2 29486  54.6792 188.3417 0104759  35.0151 174.9369  2.00565682125671
DIRECTV 9S              
1 29494U 06043A   23332.50788983 -.00000104  00000+0  00000+0 0  9996
2 29494   0.0114 359.0369 0003288 252.1531 257.6082  1.00270276 62767
OPTUS D1                
1 29495U 06043B   23331.84401428 -.00000174  00000+0  00000+0 0  9996
2 29495   0.6194  91.0201 0003868 152.3735 278.9583  1.00272520 62778
SHIJIAN-6 02A (SJ-6 02A)
1 29505U 06046A   23332.41189103  .00007312  00000+0  58296-3 0  9992
2 29505  97.7350 355.1941 0008356  86.3566 273.8613 15.00597465931878
SHIJIAN-6 02B (SJ-6 02B)
1 29506U 06046B   23332.48350492  .00004094  00000+0  36858-3 0  9995
2 29506  97.7579 354.2675 0000591 187.8119 172.3093 14.96162769931166
XM-4 (BLUES)            
1 29520U 06049A   23332.50680475 -.00000155  00000+0  00000+0 0  9995
2 29520   0.4027  95.8105 0002682 215.3708  56.5179  0.98814108 62656
DMSP 5D-3 F17 (USA 191) 
1 29522U 06050A   23332.50590172  .00000369  00000+0  21573-3 0  9991
2 29522  98.7502 342.2170 0009772 189.1460 170.9537 14.14343587880688
BADR-4                  
1 29526U 06051A   23331.89074248  .00000154  00000+0  00000+0 0  9998
2 29526   0.0401 328.2798 0008039 308.8395 136.0741  1.00270725 41917
NAVSTAR 59 (USA 192)    
1 29601U 06052A   23332.07337019 -.00000006  00000+0  00000+0 0  9999
2 29601  55.2241 251.0056 0085362  79.6962 281.2971  2.00554171124755
WILDBLUE-1              
1 29643U 06054A   23332.50178976 -.00000040  00000+0  00000+0 0  9998
2 29643   0.3882  93.6527 0001904 151.1322 251.8331  1.00271362 62203
LAPAN-TUBSAT            
1 29709U 07001A   23332.50233514  .00001520  00000+0  19141-3 0  9997
2 29709  98.0430 300.8706 0012167 343.2744  16.8067 14.83477267912909
CARTOSAT-2 (IRS-P7)     
1 29710U 07001B   23331.96593957  .00131426  00000+0  77692-3 0  9992
2 29710  97.8978 128.0071 0059024 318.1575  41.5184 15.75209872917868
THEMIS A                
1 30580U 07004A   23331.75631574 -.00000288  00000+0  53901-1 0  9994
2 30580  10.9362 282.6850 8316429 282.0501 349.1842  0.87834017 33073
SKYNET 5A               
1 30794U 07007B   23331.90449207 -.00000263  00000+0  00000+0 0  9994
2 30794   2.9104  84.7813 0004232 172.4835 230.1181  1.00272168 61351
THEMIS D                
1 30797U 07004D   23331.79452156 -.00000319  00000+0  00000+0 0  9990
2 30797   7.3427 273.6728 8288728 294.5167 348.2056  0.87834860 32875
THEMIS E                
1 30798U 07004E   23332.17256941 -.00000368  00000+0  00000+0 0  9992
2 30798   8.5337 292.8805 8291158 276.9301 124.8173  0.87832685 57714
ANIK F3                 
1 31102U 07009A   23331.86185094  .00000009  00000+0  00000+0 0  9993
2 31102   0.0148   9.7376 0002136 250.6934 357.6436  1.00272081 37213
HAIYANG-1B              
1 31113U 07010A   23331.89069715  .00000248  00000+0  11067-3 0  9995
2 31113  98.2951 338.2013 0014919  86.7064 273.5826 14.30504349867311
SAUDISAT 3              
1 31118U 07012B   23332.41837820  .00000905  00000+0  15920-3 0  9993
2 31118  98.0333 273.8331 0013992 316.5012  43.5089 14.69913405890841
SAUDICOMSAT 7           
1 31119U 07012C   23331.85646867  .00001554  00000+0  30462-3 0  9999
2 31119  98.2509 280.0944 0057319 236.6693 122.9013 14.63198075885998
SAUDICOMSAT 6           
1 31121U 07012E   23332.43532970  .00001994  00000+0  41108-3 0  9993
2 31121  98.2859 275.6636 0074849 348.4518  11.4962 14.59869503884161
