OBJECT_NAME,OBJECT_ID,EPOCH,MEAN_MOTION,ECCENTRICITY,INCLINATION,RA_OF_ASC_NODE,ARG_OF_PERICENTER,MEAN_ANOMALY,EPHEMERIS_TYPE,CLASSIFICATION_TYPE,NORAD_CAT_ID,ELEMENT_SET_NO,REV_AT_EPOCH,BSTAR,MEAN_MOTION_DOT,MEAN_MOTION_DDOT
EUTELSAT 113 WEST A,2006-020A,2023-11-27T20:42:49.184928,1.00272186,.0002997,0.0104,185.6551,61.6627,16.9304,0,U,29162,999,6411,0,-.28E-6,0
RESURS-DK 1,2006-021A,2023-11-27T21:52:40.337472,15.05851167,.0006688,69.9355,219.9370,303.3692,56.6830,0,U,29228,999,96185,.27714E-3,.3934E-4,0
GALAXY 16 (G-16),2006-023A,2023-11-27T15:37:20.910144,1.00271613,.0002097,0.0608,108.4684,132.6805,320.4955,0,U,29236,999,6362,0,-.117E-5,0
GENESIS 1,2006-029A,2023-11-28T11:20:31.344864,15.31019262,.0004451,64.5176,122.7546,237.1699,122.9003,0,U,29252,999,95970,.61129E-3,.18244E-3,0
ARIRANG-2 (KOMPSAT-2),2006-031A,2023-11-28T11:40:09.991200,14.63308367,.0015549,97.8821,184.8115,141.6563,281.5167,0,U,29268,999,92524,.15622E-3,.762E-5,0
EUTELSAT HOTBIRD 13B,2006-032A,2023-11-28T11:09:52.112736,1.00271627,.0004378,0.0504,355.3927,248.1896,24.1225,0,U,29270,999,6351,0,.165E-5,0
JCSAT-3A,2006-033A,2023-11-28T12:18:12.675744,1.00271603,.0002287,0.0507,107.7849,135.7736,136.1653,0,U,29272,999,6342,0,-.335E-5,0
SYRACUSE 3B,2006-033B,2023-11-27T21:17:42.762336,1.00272296,.0005721,0.5004,92.0384,160.2539,128.4970,0,U,29273,999,6335,0,-.34E-6,0
KOREASAT 5 (MUGUNGWHA 5),2006-034A,2023-11-28T11:32:48.045696,1.00270892,.0002219,0.0161,276.5502,333.0909,103.7493,0,U,29349,999,6329,0,-.349E-5,0
HINODE (SOLAR-B),2006-041A,2023-11-28T01:25:41.031552,14.65859191,.0018203,98.0998,345.2077,3.7384,356.3952,0,U,29479,999,91817,.2828E-3,.15E-4,0
NAVSTAR 58 (USA 190),2006-042A,2023-11-26T22:36:03.318048,2.00565682,.0104759,54.6792,188.3417,35.0151,174.9369,0,U,29486,999,12567,0,.79E-6,0
DIRECTV 9S,2006-043A,2023-11-28T12:11:21.681312,1.00270276,.0003288,0.0114,359.0369,252.1531,257.6082,0,U,29494,999,6276,0,-.104E-5,0
OPTUS D1,2006-043B,2023-11-27T20:15:22.833792,1.00272520,.0003868,0.6194,91.0201,152.3735,278.9583,0,U,29495,999,6277,0,-.174E-5,0
SHIJIAN-6 02A (SJ-6 02A),2006-046A,2023-11-28T09:53:07.384992,15.00597465,.0008356,97.7350,355.1941,86.3566,273.8613,0,U,29505,999,93187,.58296E-3,.7312E-4,0
SHIJIAN-6 02B (SJ-6 02B),2006-046B,2023-11-28T11:36:14.825088,14.96162769,.0000591,97.7579,354.2675,187.8119,172.3093,0,U,29506,999,93116,.36858E-3,.4094E-4,0
XM-4 (BLUES),2006-049A,2023-11-28T12:09:47.930400,0.98814108,.0002682,0.4027,95.8105,215.3708,56.5179,0,U,29520,999,6265,0,-.155E-5,0
DMSP 5D-3 F17 (USA 191),2006-050A,2023-11-28T12:08:29.908608,14.14343587,.0009772,98.7502,342.2170,189.1460,170.9537,0,U,29522,999,88068,.21573E-3,.369E-5,0
BADR-4,2006-051A,2023-11-27T21:22:40.150272,1.00270725,.0008039,0.0401,328.2798,308.8395,136.0741,0,U,29526,999,4191,0,.154E-5,0
NAVSTAR 59 (USA 192),2006-052A,2023-11-28T01:45:39.184416,2.00554171,.0085362,55.2241,251.0056,79.6962,281.2971,0,U,29601,999,12475,0,-.6E-7,0
WILDBLUE-1,2006-054A,2023-11-28T12:02:34.635264,1.00271362,.0001904,0.3882,93.6527,151.1322,251.8331,0,U,29643,999,6220,0,-.4E-6,0
LAPAN-TUBSAT,2007-001A,2023-11-28T12:03:21.756096,14.83477267,.0012167,98.0430,300.8706,343.2744,16.8067,0,U,29709,999,91290,.19141E-3,.152E-4,0
CARTOSAT-2 (IRS-P7),2007-001B,2023-11-27T23:10:57.178848,15.75209872,.0059024,97.8978,128.0071,318.1575,41.5184,0,U,29710,999,91786,.77692E-3,.131426E-2,0
THEMIS A,2007-004A,2023-11-27T18:09:05.679936,0.87834017,.8316429,10.9362,282.6850,282.0501,349.1842,0,U,30580,999,3307,.53901E-1,-.288E-5,0
SKYNET 5A,2007-007B,2023-11-27T21:42:28.114848,1.00272168,.0004232,2.9104,84.7813,172.4835,230.1181,0,U,30794,999,6135,0,-.263E-5,0
THEMIS D,2007-004D,2023-11-27T19:04:06.662784,0.87834860,.8288728,7.3427,273.6728,294.5167,348.2056,0,U,30797,999,3287,0,-.319E-5,0
THEMIS E,2007-004E,2023-11-28T04:08:29.997024,0.87832685,.8291158,8.5337,292.8805,276.9301,124.8173,0,U,30798,999,5771,0,-.368E-5,0
ANIK F3,2007-009A,2023-11-27T20:41:03.921216,1.00272081,.0002136,0.0148,9.7376,250.6934,357.6436,0,U,31102,999,3721,0,.9E-7,0
HAIYANG-1B,2007-010A,2023-11-27T21:22:36.233760,14.30504349,.0014919,98.2951,338.2013,86.7064,273.5826,0,U,31113,999,86731,.11067E-3,.248E-5,0
SAUDISAT 3,2007-012B,2023-11-28T10:02:27.876480,14.69913405,.0013992,98.0333,273.8331,316.5012,43.5089,0,U,31118,999,89084,.1592E-3,.905E-5,0
SAUDICOMSAT 7,2007-012C,2023-11-27T20:33:18.893088,14.63198075,.0057319,98.2509,280.0944,236.6693,122.9013,0,U,31119,999,88599,.30462E-3,.1554E-4,0
SAUDICOMSAT 6,2007-012E,2023-11-28T10:26:52.486080,14.59869503,.0074849,98.2859,275.6636,348.4518,11.4962,0,U,31121,999,88416,.41108E-3,.1994E-4,0
